[{"OBJECT_NAME":"POLYITAN-1","OBJECT_ID":"2014-033AJ","EPOCH":"2026-03-09T22:27:50.258304","MEAN_MOTION":15.29568085,"ECCENTRICITY":0.00093607,"INCLINATION":98.1053,"RA_OF_ASC_NODE":86.0432,"ARG_OF_PERICENTER":127.248,"MEAN_ANOMALY":232.9614,"EPHEMERIS_TYPE":0,"CLASSIFICATION_TYPE":"U","NORAD_CAT_ID":40042,"ELEMENT_SET_NO":999,"REV_AT_EPOCH":63840,"BSTAR":0.00083772474,"MEAN_MOTION_DOT":0.00024003,"MEAN_MOTION_DDOT":0},{"OBJECT_NAME":"STARLINK-35462","OBJECT_ID":"2025-223Z","EPOCH":"2026-03-09T21:56:20.141664","MEAN_MOTION":15.30208743,"ECCENTRICITY":0.00013886,"INCLINATION":53.1578,"RA_OF_ASC_NODE":292.8708,"ARG_OF_PERICENTER":49.8857,"MEAN_ANOMALY":310.2265,"EPHEMERIS_TYPE":0,"CLASSIFICATION_TYPE":"U","NORAD_CAT_ID":65877,"ELEMENT_SET_NO":999,"REV_AT_EPOCH":2424,"BSTAR":0.00077418298,"MEAN_MOTION_DOT":0.00022646,"MEAN_MOTION_DDOT":0}]
